[{"OBJECT_NAME":"STARLINK-31527","OBJECT_ID":"2024-036W","EPOCH":"2026-03-09T07:35:27.884544","MEAN_MOTION":15.30193496,"ECCENTRICITY":0.00012847,"INCLINATION":53.1588,"RA_OF_ASC_NODE":80.0367,"ARG_OF_PERICENTER":85.6358,"MEAN_ANOMALY":274.4789,"EPHEMERIS_TYPE":0,"CLASSIFICATION_TYPE":"U","NORAD_CAT_ID":59018,"ELEMENT_SET_NO":999,"REV_AT_EPOCH":11526,"BSTAR":-4.6739165e-5,"MEAN_MOTION_DOT":-1.743e-5,"MEAN_MOTION_DDOT":0},{"OBJECT_NAME":"KUIPER-00222","OBJECT_ID":"2026-030U","EPOCH":"2026-03-09T16:13:57.726048","MEAN_MOTION":15.32445377,"ECCENTRICITY":0.00128002,"INCLINATION":51.8817,"RA_OF_ASC_NODE":219.7147,"ARG_OF_PERICENTER":40.1845,"MEAN_ANOMALY":320.0084,"EPHEMERIS_TYPE":0,"CLASSIFICATION_TYPE":"U","NORAD_CAT_ID":67782,"ELEMENT_SET_NO":999,"REV_AT_EPOCH":508,"BSTAR":0.0017317201,"MEAN_MOTION_DOT":0.00055223,"MEAN_MOTION_DDOT":0}]
